[{"OBJECT_NAME":"KUIPER-00051","OBJECT_ID":"2025-134M","EPOCH":"2026-03-09T14:55:00.456384","MEAN_MOTION":14.83775882,"ECCENTRICITY":6.43e-5,"INCLINATION":51.9006,"RA_OF_ASC_NODE":226.0794,"ARG_OF_PERICENTER":101.5972,"MEAN_ANOMALY":258.5064,"EPHEMERIS_TYPE":0,"CLASSIFICATION_TYPE":"U","NORAD_CAT_ID":64511,"ELEMENT_SET_NO":999,"REV_AT_EPOCH":4016,"BSTAR":0.00067322,"MEAN_MOTION_DOT":5.404e-5,"MEAN_MOTION_DDOT":0},{"OBJECT_NAME":"FENGYUN 1C DEB","OBJECT_ID":"1999-025DPA","EPOCH":"2026-03-03T11:52:16.983264","MEAN_MOTION":14.61170215,"ECCENTRICITY":0.01128212,"INCLINATION":98.9395,"RA_OF_ASC_NODE":157.2539,"ARG_OF_PERICENTER":188.398,"MEAN_ANOMALY":171.5333,"EPHEMERIS_TYPE":0,"CLASSIFICATION_TYPE":"U","NORAD_CAT_ID":35194,"ELEMENT_SET_NO":999,"REV_AT_EPOCH":66569,"BSTAR":0.0014391564,"MEAN_MOTION_DOT":7.702e-5,"MEAN_MOTION_DDOT":0}]
